ORBITAL FACTORY 2 (OF-2)
1 45113U 19071C   20235.76197443  .00001185  00000-0  47450-4 0  9994
2 45113  51.6449  43.1828 0012360 297.5562  62.4164 15.33553863 31301
M2 PATHFINDER           
1 45727U 20037E   20235.56745888 -.00000243  00000-0 -18843-4 0  9999
2 45727  97.7016  54.1473 0014149  80.1075 280.1805 14.91214866  7879
